SL-14 R/B               
1 16792U 86046B   26013.03640884  .00000416  00000+0  45071-4 0  9995
2 16792  82.4834 132.7592 0024293  54.2635 306.0836 14.85526182118143
SL-14 R/B               
1 16882U 86055B   26013.18936716  .00000471  00000+0  51506-4 0  9994
2 16882  82.5204 178.8198 0019601 151.9650  21.2532 14.85569805111126
AJISAI (EGS)            
1 16908U 86061A   26013.31151948 -.00000078  00000+0  13815-3 0  9995
2 16908  50.0084 263.6378 0011304 145.1760 319.2217 12.44514882461107
COSMOS 1812             
1 17295U 87003A   26013.15875985  .00125460  00000+0  56568-3 0  9992
2 17295  82.4838 257.8154 0003014  50.4274 309.7261 15.83670783135613
SL-14 R/B               
1 17567U 87024B   26013.09003957  .00000459  00000+0  49448-4 0  9992
2 17567  82.5297 145.0052 0019743  85.4682 274.8789 14.86066120 79875
COSMOS 1833             
1 17589U 87027A   26013.21963328  .00000302  00000+0  18700-3 0  9993
2 17589  70.9190  82.6058 0024029 288.2649  71.5857 14.13042674  2482
SL-16 R/B               
1 17590U 87027B   26013.28335534  .00000055  00000+0  51093-4 0  9992
2 17590  71.0032  33.2483 0006546 225.8902 134.1684 14.17160265  7499
SL-14 R/B               
1 17912U 87038B   26013.19109488  .00000459  00000+0  50477-4 0  9992
2 17912  82.5022 349.0740 0019081 353.0437   7.0511 14.85299180 70998
COSMOS 1844             
1 17973U 87041A   26013.10115268 -.00000185  00000+0 -70975-4 0  9990
2 17973  70.8995 151.4256 0028321 107.1887 253.2338 14.14538603995722
SL-14 R/B               
1 18153U 87055B   26013.31224867  .00000381  00000+0  41181-4 0  9998
2 18153  82.4978  41.2277 0020292 192.4923 167.5793 14.85557557 61711
COSMOS 1867             
1 18187U 87060A   26013.25045348 -.00000048  00000+0  19477-4 0  9993
2 18187  65.0111 101.9610 0013829 274.1765  85.7739 14.31492554 12004
SL-14 R/B               
1 18749U 88001B   26013.16918800  .00000368  00000+0  39723-4 0  9995
2 18749  82.5116 247.5871 0019482  64.0090 296.3130 14.85460325 33784
