CCSDS_OMM_VERS = 2.0
CREATION_DATE  = 
ORIGINATOR     = 

OBJECT_NAME    = SL-14 R/B
OBJECT_ID      = 1986-046B
CENTER_NAME    = EARTH
REF_FRAME      = TEME
TIME_SYSTEM    = UTC
MEAN_ELEMENT_THEORY = SGP/SGP4

EPOCH          = 2026-01-13T00:52:25.723776
MEAN_MOTION    = 14.85526182
ECCENTRICITY   = .00242936
INCLINATION    = 82.4834
RA_OF_ASC_NODE = 132.7592
ARG_OF_PERICENTER = 54.2635
MEAN_ANOMALY   = 306.0836

EPHEMERIS_TYPE = 0
CLASSIFICATION_TYPE = U
NORAD_CAT_ID   = 16792
ELEMENT_SET_NO = 999
REV_AT_EPOCH   = 11814
BSTAR          = .45071225E-4
MEAN_MOTION_DOT = .416E-5
MEAN_MOTION_DDOT = 0

CCSDS_OMM_VERS = 2.0
CREATION_DATE  = 
ORIGINATOR     = 

OBJECT_NAME    = SL-14 R/B
OBJECT_ID      = 1986-055B
CENTER_NAME    = EARTH
REF_FRAME      = TEME
TIME_SYSTEM    = UTC
MEAN_ELEMENT_THEORY = SGP/SGP4

EPOCH          = 2026-01-13T04:32:41.322624
MEAN_MOTION    = 14.85569805
ECCENTRICITY   = .00196012
INCLINATION    = 82.5204
RA_OF_ASC_NODE = 178.8198
ARG_OF_PERICENTER = 151.9650
MEAN_ANOMALY   = 21.2532

EPHEMERIS_TYPE = 0
CLASSIFICATION_TYPE = U
NORAD_CAT_ID   = 16882
ELEMENT_SET_NO = 999
REV_AT_EPOCH   = 11112
BSTAR          = .5150563E-4
MEAN_MOTION_DOT = .471E-5
MEAN_MOTION_DDOT = 0

CCSDS_OMM_VERS = 2.0
CREATION_DATE  = 
ORIGINATOR     = 

OBJECT_NAME    = AJISAI (EGS)
OBJECT_ID      = 1986-061A
CENTER_NAME    = EARTH
REF_FRAME      = TEME
TIME_SYSTEM    = UTC
MEAN_ELEMENT_THEORY = SGP/SGP4

EPOCH          = 2026-01-13T07:28:35.283072
MEAN_MOTION    = 12.44514882
ECCENTRICITY   = .00113045
INCLINATION    = 50.0084
RA_OF_ASC_NODE = 263.6378
ARG_OF_PERICENTER = 145.1760
MEAN_ANOMALY   = 319.2217

EPHEMERIS_TYPE = 0
CLASSIFICATION_TYPE = U
NORAD_CAT_ID   = 16908
ELEMENT_SET_NO = 999
REV_AT_EPOCH   = 46110
BSTAR          = .13815073E-3
MEAN_MOTION_DOT = -.78E-6
MEAN_MOTION_DDOT = 0

CCSDS_OMM_VERS = 2.0
CREATION_DATE  = 
ORIGINATOR     = 

OBJECT_NAME    = COSMOS 1812
OBJECT_ID      = 1987-003A
CENTER_NAME    = EARTH
REF_FRAME      = TEME
TIME_SYSTEM    = UTC
MEAN_ELEMENT_THEORY = SGP/SGP4

EPOCH          = 2026-01-13T03:48:36.851040
MEAN_MOTION    = 15.83670783
ECCENTRICITY   = .00030148
INCLINATION    = 82.4838
RA_OF_ASC_NODE = 257.8154
ARG_OF_PERICENTER = 50.4274
MEAN_ANOMALY   = 309.7261

EPHEMERIS_TYPE = 0
CLASSIFICATION_TYPE = U
NORAD_CAT_ID   = 17295
ELEMENT_SET_NO = 999
REV_AT_EPOCH   = 13561
BSTAR          = .5656752E-3
MEAN_MOTION_DOT = .12546E-2
MEAN_MOTION_DDOT = 0

CCSDS_OMM_VERS = 2.0
CREATION_DATE  = 
ORIGINATOR     = 

OBJECT_NAME    = SL-14 R/B
OBJECT_ID      = 1987-024B
CENTER_NAME    = EARTH
REF_FRAME      = TEME
TIME_SYSTEM    = UTC
MEAN_ELEMENT_THEORY = SGP/SGP4

EPOCH          = 2026-01-13T02:09:39.418848
MEAN_MOTION    = 14.86066120
ECCENTRICITY   = .00197432
INCLINATION    = 82.5297
RA_OF_ASC_NODE = 145.0052
ARG_OF_PERICENTER = 85.4682
MEAN_ANOMALY   = 274.8789

EPHEMERIS_TYPE = 0
CLASSIFICATION_TYPE = U
NORAD_CAT_ID   = 17567
ELEMENT_SET_NO = 999
REV_AT_EPOCH   = 7987
BSTAR          = .49448226E-4
MEAN_MOTION_DOT = .459E-5
MEAN_MOTION_DDOT = 0

CCSDS_OMM_VERS = 2.0
CREATION_DATE  = 
ORIGINATOR     = 

OBJECT_NAME    = COSMOS 1833
OBJECT_ID      = 1987-027A
CENTER_NAME    = EARTH
REF_FRAME      = TEME
TIME_SYSTEM    = UTC
MEAN_ELEMENT_THEORY = SGP/SGP4

EPOCH          = 2026-01-13T05:16:16.315392
MEAN_MOTION    = 14.13042674
ECCENTRICITY   = .00240292
INCLINATION    = 70.9190
RA_OF_ASC_NODE = 82.6058
ARG_OF_PERICENTER = 288.2649
MEAN_ANOMALY   = 71.5857

EPHEMERIS_TYPE = 0
CLASSIFICATION_TYPE = U
NORAD_CAT_ID   = 17589
ELEMENT_SET_NO = 999
REV_AT_EPOCH   = 248
BSTAR          = .18699538E-3
MEAN_MOTION_DOT = .302E-5
MEAN_MOTION_DDOT = 0

CCSDS_OMM_VERS = 2.0
CREATION_DATE  = 
ORIGINATOR     = 

OBJECT_NAME    = SL-16 R/B
OBJECT_ID      = 1987-027B
CENTER_NAME    = EARTH
REF_FRAME      = TEME
TIME_SYSTEM    = UTC
MEAN_ELEMENT_THEORY = SGP/SGP4

EPOCH          = 2026-01-13T06:48:01.901376
MEAN_MOTION    = 14.17160265
ECCENTRICITY   = .00065461
INCLINATION    = 71.0032
RA_OF_ASC_NODE = 33.2483
ARG_OF_PERICENTER = 225.8902
MEAN_ANOMALY   = 134.1684

EPHEMERIS_TYPE = 0
CLASSIFICATION_TYPE = U
NORAD_CAT_ID   = 17590
ELEMENT_SET_NO = 999
REV_AT_EPOCH   = 749
BSTAR          = .51093001E-4
MEAN_MOTION_DOT = .55E-6
MEAN_MOTION_DDOT = 0

CCSDS_OMM_VERS = 2.0
CREATION_DATE  = 
ORIGINATOR     = 

OBJECT_NAME    = SL-14 R/B
OBJECT_ID      = 1987-038B
CENTER_NAME    = EARTH
REF_FRAME      = TEME
TIME_SYSTEM    = UTC
MEAN_ELEMENT_THEORY = SGP/SGP4

EPOCH          = 2026-01-13T04:35:10.597632
MEAN_MOTION    = 14.85299180
ECCENTRICITY   = .00190813
INCLINATION    = 82.5022
RA_OF_ASC_NODE = 349.0740
ARG_OF_PERICENTER = 353.0437
MEAN_ANOMALY   = 7.0511

EPHEMERIS_TYPE = 0
CLASSIFICATION_TYPE = U
NORAD_CAT_ID   = 17912
ELEMENT_SET_NO = 999
REV_AT_EPOCH   = 7099
BSTAR          = .50477064E-4
MEAN_MOTION_DOT = .459E-5
MEAN_MOTION_DDOT = 0

CCSDS_OMM_VERS = 2.0
CREATION_DATE  = 
ORIGINATOR     = 

OBJECT_NAME    = COSMOS 1844
OBJECT_ID      = 1987-041A
CENTER_NAME    = EARTH
REF_FRAME      = TEME
TIME_SYSTEM    = UTC
MEAN_ELEMENT_THEORY = SGP/SGP4

EPOCH          = 2026-01-13T02:25:39.591552
MEAN_MOTION    = 14.14538603
ECCENTRICITY   = .00283216
INCLINATION    = 70.8995
RA_OF_ASC_NODE = 151.4256
ARG_OF_PERICENTER = 107.1887
MEAN_ANOMALY   = 253.2338

EPHEMERIS_TYPE = 0
CLASSIFICATION_TYPE = U
NORAD_CAT_ID   = 17973
ELEMENT_SET_NO = 999
REV_AT_EPOCH   = 99572
BSTAR          = -.70975306E-4
MEAN_MOTION_DOT = -.185E-5
MEAN_MOTION_DDOT = 0

CCSDS_OMM_VERS = 2.0
CREATION_DATE  = 
ORIGINATOR     = 

OBJECT_NAME    = SL-14 R/B
OBJECT_ID      = 1987-055B
CENTER_NAME    = EARTH
REF_FRAME      = TEME
TIME_SYSTEM    = UTC
MEAN_ELEMENT_THEORY = SGP/SGP4

EPOCH          = 2026-01-13T07:29:38.285088
MEAN_MOTION    = 14.85557557
ECCENTRICITY   = .0020292
INCLINATION    = 82.4978
RA_OF_ASC_NODE = 41.2277
ARG_OF_PERICENTER = 192.4923
MEAN_ANOMALY   = 167.5793

EPHEMERIS_TYPE = 0
CLASSIFICATION_TYPE = U
NORAD_CAT_ID   = 18153
ELEMENT_SET_NO = 999
REV_AT_EPOCH   = 6171
BSTAR          = .41181135E-4
MEAN_MOTION_DOT = .381E-5
MEAN_MOTION_DDOT = 0

CCSDS_OMM_VERS = 2.0
CREATION_DATE  = 
ORIGINATOR     = 

OBJECT_NAME    = COSMOS 1867
OBJECT_ID      = 1987-060A
CENTER_NAME    = EARTH
REF_FRAME      = TEME
TIME_SYSTEM    = UTC
MEAN_ELEMENT_THEORY = SGP/SGP4

EPOCH          = 2026-01-13T06:00:39.180672
MEAN_MOTION    = 14.31492554
ECCENTRICITY   = .00138291
INCLINATION    = 65.0111
RA_OF_ASC_NODE = 101.9610
ARG_OF_PERICENTER = 274.1765
MEAN_ANOMALY   = 85.7739

EPHEMERIS_TYPE = 0
CLASSIFICATION_TYPE = U
NORAD_CAT_ID   = 18187
ELEMENT_SET_NO = 999
REV_AT_EPOCH   = 1200
BSTAR          = .19477113E-4
MEAN_MOTION_DOT = -.48E-6
MEAN_MOTION_DDOT = 0

CCSDS_OMM_VERS = 2.0
CREATION_DATE  = 
ORIGINATOR     = 

OBJECT_NAME    = SL-14 R/B
OBJECT_ID      = 1988-001B
CENTER_NAME    = EARTH
REF_FRAME      = TEME
TIME_SYSTEM    = UTC
MEAN_ELEMENT_THEORY = SGP/SGP4

EPOCH          = 2026-01-13T04:03:37.843200
MEAN_MOTION    = 14.85460325
ECCENTRICITY   = .00194825
INCLINATION    = 82.5116
RA_OF_ASC_NODE = 247.5871
ARG_OF_PERICENTER = 64.0090
MEAN_ANOMALY   = 296.3130

EPHEMERIS_TYPE = 0
CLASSIFICATION_TYPE = U
NORAD_CAT_ID   = 18749
ELEMENT_SET_NO = 999
REV_AT_EPOCH   = 3378
BSTAR          = .39722573E-4
MEAN_MOTION_DOT = .368E-5
MEAN_MOTION_DDOT = 0

